TOMORROW-S2             
1 60485U 24149T   26068.75188364  .00008133  00000+0  27683-3 0  9990
2 60485  97.3857 150.0385 0001648 234.3331 125.7757 15.30674935 86869
STARLINK-35742          
1 66276U 25247M   26068.62417634  .00047156  00000+0  15947-2 0  9992
2 66276  53.1577 191.7465 0001058  61.1170 298.9937 15.30189377 21071
